NORAD_CAT_ID,OBJECT_NAME,OBJECT_TYPE,EPOCH,MEAN_MOTION,ECCENTRICITY,INCLINATION,RA_OF_ASC_NODE,ARG_OF_PERICENTER,MEAN_ANOMALY,BSTAR,MEAN_MOTION_DOT,MEAN_MOTION_DDOT,TLE_LINE0,TLE_LINE1,TLE_LINE2,SEMIMAJOR_AXIS,PERIOD,APOGEE,PERIGEE,DECAYED
56464.0,STARLINK-6043,PAYLOAD,2023-10-06 21:21:51,14.98325847,0.000298,70.0025,215.2629,275.241,84.8409,-6.4099e-05,-8.58e-06,0.0,0 STARLINK-6043,1 56464U 23064S   23279.89018075 -.00000858  00000-0 -64099-4 0  9996,2 56464  70.0025 215.2629 0002980 275.2410  84.8409 14.98325847 22714,6950.206,96.107,574.142,570.0,0.0
56464.0,STARLINK-6043,PAYLOAD,2023-10-07 02:10:15,14.98328874,0.0002973,70.0019,214.76,270.0792,90.0026,-0.00014753,-1.853e-05,0.0,0 STARLINK-6043,1 56464U 23064S   23280.09046140 -.00001853  00000-0 -14753-3 0  9991,2 56464  70.0019 214.7600 0002973 270.0792  90.0026 14.98328874 23109,6950.196,96.107,574.128,569.995,0.0
56464.0,STARLINK-6043,PAYLOAD,2023-10-07 05:22:31,14.98338036,0.0003061,70.0014,214.423,270.2186,89.8622,-5.5164e-05,-7.51e-06,0.0,0 STARLINK-6043,1 56464U 23064S   23280.22397256 -.00000751  00000-0 -55164-4 0  9991,2 56464  70.0014 214.4230 0003061 270.2186  89.8622 14.98338036 23129,6950.168,96.106,574.16,569.906,0.0
56464.0,STARLINK-6043,PAYLOAD,2023-10-07 13:23:11,14.98333293,0.0003133,70.0013,213.5811,271.8758,88.2042,-7.6513e-05,-1.006e-05,0.0,0 STARLINK-6043,1 56464U 23064S   23280.55777486 -.00001006  00000-0 -76513-4 0  9999,2 56464  70.0013 213.5811 0003133 271.8758  88.2042 14.98333293 22819,6950.183,96.107,574.225,569.87,0.0
56464.0,STARLINK-6043,PAYLOAD,2023-10-07 21:23:52,14.98322486,0.0003168,70.0015,212.7396,269.2097,90.8699,3.398e-05,3.12e-06,0.0,0 STARLINK-6043,1 56464U 23064S   23280.89157853  .00000312  00000-0  33980-4 0  9994,2 56464  70.0015 212.7396 0003168 269.2097  90.8699 14.98322486 22869,6950.216,96.107,574.283,569.879,0.0
56464.0,STARLINK-6043,PAYLOAD,2023-10-08 02:12:16,14.98330905,0.0003195,70.0014,212.2353,268.738,91.3413,1.7076e-05,1.11e-06,0.0,0 STARLINK-6043,1 56464U 23064S   23281.09185411  .00000111  00000-0  17076-4 0  9993,2 56464  70.0014 212.2353 0003195 268.7380  91.3413 14.98330905 23254,6950.19,96.107,574.276,569.835,0.0
56464.0,STARLINK-6043,PAYLOAD,2023-10-08 05:24:31,14.98338755,0.0003162,70.0013,211.8991,270.1201,89.9596,9.8581e-05,1.084e-05,0.0,0 STARLINK-6043,1 56464U 23064S   23281.22536691  .00001084  00000-0  98581-4 0  9998,2 56464  70.0013 211.8991 0003162 270.1201  89.9596 14.98338755 23277,6950.166,96.106,574.228,569.833,0.0
56464.0,STARLINK-6043,PAYLOAD,2023-10-08 21:25:52,14.98328619,0.0002919,70.0023,210.2161,271.4895,88.593,0.00012426,1.39e-05,0.0,0 STARLINK-6043,1 56464U 23064S   23281.89297190  .00001390  00000-0  12426-3 0  9992,2 56464  70.0023 210.2161 0002919 271.4895  88.5930 14.98328619 23019,6950.197,96.107,574.091,570.033,0.0
56464.0,STARLINK-6043,PAYLOAD,2023-10-09 05:26:32,14.9834102,0.000282,70.0026,209.3749,271.6486,88.435,0.00017344,1.978e-05,0.0,0 STARLINK-6043,1 56464U 23064S   23282.22676189  .00001978  00000-0  17344-3 0  9995,2 56464  70.0026 209.3749 0002820 271.6486  88.4350 14.98341020 23423,6950.159,96.106,573.984,570.064,0.0
56464.0,STARLINK-6043,PAYLOAD,2023-10-09 18:15:37,14.98324643,0.0002024,70.0048,208.0311,278.423,81.6699,0.00016102,1.829e-05,0.0,0 STARLINK-6043,1 56464U 23064S   23282.76085308  .00001829  00000-0  16102-3 0  9997,2 56464  70.0048 208.0311 0002024 278.4230  81.6699 14.98324643 23508,6950.209,96.107,573.481,570.668,0.0
56464.0,STARLINK-6043,PAYLOAD,2023-10-09 21:27:54,14.98325618,0.0002691,70.0019,207.6913,271.0647,89.0204,-3.496e-05,-5.1e-06,0.0,0 STARLINK-6043,1 56464U 23064S   23282.89437681 -.00000510  00000-0 -34960-4 0  9997,2 56464  70.0019 207.6913 0002691 271.0647  89.0204 14.98325618 23169,6950.206,96.107,573.942,570.201,0.0
56464.0,STARLINK-6043,PAYLOAD,2023-10-10 11:53:06,14.98329375,0.0002811,70.0028,206.1769,273.652,86.4317,-6.3074e-05,-8.45e-06,0.0,0 STARLINK-6043,1 56464U 23064S   23283.49521460 -.00000845  00000-0 -63074-4 0  9992,2 56464  70.0028 206.1769 0002811 273.6520  86.4317 14.98329375 23254,6950.195,96.107,574.014,570.106,0.0
56464.0,STARLINK-6043,PAYLOAD,2023-10-10 18:17:39,14.98327797,0.0002437,70.0022,205.5049,269.2507,90.8372,-0.00011967,-1.52e-05,0.0,0 STARLINK-6043,1 56464U 23064S   23283.76225891 -.00001520  00000-0 -11967-3 0  9995,2 56464  70.0022 205.5049 0002437 269.2507  90.8372 14.98327797 23652,6950.2,96.107,573.758,570.371,0.0
56464.0,STARLINK-6043,PAYLOAD,2023-10-10 21:29:55,14.98326798,0.0002487,70.0023,205.1686,267.3462,92.7412,-0.00014825,-1.861e-05,0.0,0 STARLINK-6043,1 56464U 23064S   23283.89578039 -.00001861  00000-0 -14825-3 0  9998,2 56464  70.0023 205.1686 0002487 267.3462  92.7412 14.98326798 23319,6950.203,96.107,573.796,570.339,0.0
56464.0,STARLINK-6043,PAYLOAD,2023-10-11 11:55:07,14.98352396,0.0002465,70.0029,203.6523,276.517,83.5708,-0.00058919,-7.12e-05,0.0,0 STARLINK-6043,1 56464U 23064S   23284.49661509 -.00007120  00000-0 -58919-3 0  9996,2 56464  70.0029 203.6523 0002465 276.5170  83.5708 14.98352396 23401,6950.124,96.106,573.702,570.275,0.0
56464.0,STARLINK-6043,PAYLOAD,2023-10-11 18:19:40,14.98321684,0.0002681,70.0024,202.9792,269.5631,90.5221,-4.769e-06,-1.5e-06,0.0,0 STARLINK-6043,1 56464U 23064S   23284.76366154 -.00000150  00000-0 -47690-5 0  9996,2 56464  70.0024 202.9792 0002681 269.5631  90.5221 14.98321684 23808,6950.219,96.108,573.947,570.22,0.0
56464.0,STARLINK-6043,PAYLOAD,2023-10-12 03:56:28,14.9833092,0.0002524,70.0027,201.9704,267.5431,92.5439,8.9999e-05,9.81e-06,0.0,0 STARLINK-6043,1 56464U 23064S   23285.16421440  .00000981  00000-0  89999-4 0  9998,2 56464  70.0027 201.9704 0002524 267.5431  92.5439 14.98330920 23867,6950.19,96.107,573.809,570.301,0.0
56464.0,STARLINK-6043,PAYLOAD,2023-10-12 11:57:08,14.98332791,0.0002211,70.0029,201.1274,283.6659,76.4254,-4.9563e-06,-1.52e-06,0.0,0 STARLINK-6043,1 56464U 23064S   23285.49801766 -.00000152  00000-0 -49563-5 0  9993,2 56464  70.0029 201.1274 0002211 283.6659  76.4254 14.98332791 23557,6950.184,96.107,573.586,570.513,0.0
56464.0,STARLINK-6043,PAYLOAD,2023-10-12 21:33:57,14.98325597,0.0002563,70.0021,200.1179,271.5427,88.5439,0.00010349,1.142e-05,0.0,0 STARLINK-6043,1 56464U 23064S   23285.89857761  .00001142  00000-0  10349-3 0  9999,2 56464  70.0021 200.1179 0002563 271.5427  88.5439 14.98325597 23613,6950.207,96.107,573.853,570.29,0.0
56464.0,STARLINK-6043,PAYLOAD,2023-10-13 03:58:28,14.98333259,0.0002705,70.0016,199.4444,270.2325,89.8525,0.00012165,1.359e-05,0.0,0 STARLINK-6043,1 56464U 23064S   23286.16561201  .00001359  00000-0  12165-3 0  9999,2 56464  70.0016 199.4444 0002705 270.2325  89.8525 14.98333259 24012,6950.183,96.107,573.928,570.168,0.0
56464.0,STARLINK-6043,PAYLOAD,2023-10-13 11:59:09,14.98332531,0.0002712,70.0016,198.602,272.8684,87.2165,3.2577e-05,2.96e-06,0.0,0 STARLINK-6043,1 56464U 23064S   23286.49941409  .00000296  00000-0  32577-4 0  9996,2 56464  70.0016 198.6020 0002712 272.8684  87.2165 14.98332531 23706,6950.185,96.107,573.935,570.165,0.0
56464.0,STARLINK-6043,PAYLOAD,2023-10-13 21:35:57,14.98332783,0.0002793,70.0012,197.5923,270.9119,89.1719,8.0268e-05,8.65e-06,0.0,0 STARLINK-6043,1 56464U 23064S   23286.89997185  .00000865  00000-0  80268-4 0  9994,2 56464  70.0012 197.5923 0002793 270.9119  89.1719 14.98332783 23764,6950.184,96.107,573.99,570.108,0.0
56464.0,STARLINK-6043,PAYLOAD,2023-10-14 04:00:29,14.98342738,0.000292,70.002,196.9224,273.872,86.2105,0.00013777,1.552e-05,0.0,0 STARLINK-6043,1 56464U 23064S   23287.16700243  .00001552  00000-0  13777-3 0  9996,2 56464  70.0020 196.9224 0002920 273.8720  86.2105 14.98342738 24165,6950.154,96.106,574.048,569.989,0.0
56464.0,STARLINK-6043,PAYLOAD,2023-10-14 12:01:10,14.98327074,0.0002947,70.0018,196.0781,267.2805,92.8016,-0.00012387,-1.571e-05,0.0,0 STARLINK-6043,1 56464U 23064S   23287.50081710 -.00001571  00000-0 -12387-3 0  9994,2 56464  70.0018 196.0781 0002947 267.2805  92.8016 14.98327074 23856,6950.202,96.107,574.115,570.019,0.0
56464.0,STARLINK-6043,PAYLOAD,2023-10-14 20:01:51,14.98318798,0.0002809,70.0014,195.2367,266.205,93.8788,-0.00013495,-1.702e-05,0.0,0 STARLINK-6043,1 56464U 23064S   23287.83462431 -.00001702  00000-0 -13495-3 0  9990,2 56464  70.0014 195.2367 0002809 266.2050  93.8788 14.98318798 24267,6950.228,96.108,574.045,570.14,0.0
56464.0,STARLINK-6043,PAYLOAD,2023-10-14 21:37:59,14.9831821,0.0002835,70.0013,195.0683,265.8153,94.2682,-0.00013373,-1.688e-05,0.0,0 STARLINK-6043,1 56464U 23064S   23287.90138497 -.00001688  00000-0 -13373-3 0  9998,2 56464  70.0013 195.0683 0002835 265.8153  94.2682 14.98318210 23911,6950.229,96.108,574.065,570.124,0.0
56464.0,STARLINK-6043,PAYLOAD,2023-10-15 04:02:31,14.98322148,0.0002895,70.0013,194.395,265.2014,94.8814,-0.00017087,-2.131e-05,0.0,0 STARLINK-6043,1 56464U 23064S   23288.16842501 -.00002131  00000-0 -17087-3 0  9995,2 56464  70.0013 194.3950 0002895 265.2014  94.8814 14.98322148 23958,6950.217,96.108,574.094,570.07,0.0
56464.0,STARLINK-6043,PAYLOAD,2023-10-15 20:03:51,14.98334879,0.000298,70.0008,192.7118,263.093,96.9891,1.5061e-05,8.7e-07,0.0,0 STARLINK-6043,1 56464U 23064S   23288.83601234  .00000087  00000-0  15061-4 0  9992,2 56464  70.0008 192.7118 0002980 263.0930  96.9891 14.98334879 24412,6950.178,96.107,574.114,569.972,0.0
56464.0,STARLINK-6043,PAYLOAD,2023-10-15 21:39:59,14.9833602,0.0002947,70.0011,192.5438,264.4899,95.5924,3.192e-05,2.88e-06,0.0,0 STARLINK-6043,1 56464U 23064S   23288.90277116  .00000288  00000-0  31920-4 0  9993,2 56464  70.0011 192.5438 0002947 264.4899  95.5924 14.98336020 24064,6950.174,96.107,574.087,569.991,0.0
56464.0,STARLINK-6043,PAYLOAD,2023-10-16 04:04:31,14.98343546,0.0002986,70.001,191.8708,266.3064,93.7754,5.9997e-05,6.23e-06,0.0,0 STARLINK-6043,1 56464U 23064S   23289.16980448  .00000623  00000-0  59997-4 0  9998,2 56464  70.0010 191.8708 0002986 266.3064  93.7754 14.98343546 24469,6950.151,96.106,574.091,569.941,0.0
